GLOBALSTAR M045 [-]     
1 25676U 99019A   23329.63025694 -.00000046  00000+0  42131-3 0  9992
2 25676  51.9943 128.5710 0001605 124.8133 315.1695 12.27020288123476
GLOBALSTAR M019 [-]     
1 25677U 99019B   23329.87426097  .00000003  00000+0  97315-3 0  9997
2 25677  51.9861 218.1969 0000100  21.9370 102.0279 12.13845857116001
GLOBALSTAR M044 [-]     
1 25678U 99019C   23329.55596796 -.00000076  00000+0  10827-3 0  9991
2 25678  51.9959  99.1763 0006451  29.8415  50.9076 11.90227362103495
GLOBALSTAR M042 [-]     
1 25679U 99019D   23329.88829743 -.00000045  00000+0  44385-3 0  9991
2 25679  52.0004 218.0544 0002368 188.1329 252.9105 12.22052099115651
GLOBALSTAR M025 [-]     
1 25770U 99031A   23329.71007899 -.00000057  00000+0  31848-3 0  9992
2 25770  51.9846  38.4943 0000918 251.4113 285.4942 11.22547591417757
GLOBALSTAR M049 [-]     
1 25771U 99031B   23329.58521380 -.00000090  00000+0 -86866-3 0  9992
2 25771  51.9902  44.9200 0003457 137.7787 222.3276 11.12100110 54054
GLOBALSTAR M047 [-]     
1 25772U 99031C   23329.73907785 -.00000087  00000+0 -47219-3 0  9992
2 25772  51.9831  95.9431 0016001   8.8162 351.2922 11.31917094406624
GLOBALSTAR M052 [-]     
1 25773U 99031D   23329.71942672  .00000008  00000+0  24883-2 0  9997
2 25773  51.9825 161.2984 0001658 340.9784 100.0564 11.15047422414981
